{
"type": "FeatureCollection",
"crs": { "type": "name", "properties": { "name": "urn:ogc:def:crs:EPSG::4647" } },
"features": [
{ "type": "Feature", "properties": { "id": 0, "addr:city": "Heide", "addr:country": "DE", "addr:housenumber": "26", "addr:postcode": "25746", "addr:street": "Hans-Böckler-Straße", "building": "apartments", "name": null, "opening_hours": null, "shop": null, "toilets:wheelchair": null, "website": null, "wheelchair": null, "craft": null, "fixme": null, "P_heat_max": 23, "lat": 6005014.398159652, "lon": 32506955.091667686, "id_full": "consumers-0", "type": "H" }, "geometry": { "type": "Point", "coordinates": [ 32506955.09166768565774, 6005014.398159652017057 ] } },
{ "type": "Feature", "properties": { "id": 1, "addr:city": "Heide", "addr:country": null, "addr:housenumber": "7", "addr:postcode": "25746", "addr:street": "Stettiner Straße", "building": "apartments", "name": null, "opening_hours": null, "shop": null, "toilets:wheelchair": null, "website": null, "wheelchair": null, "craft": null, "fixme": null, "P_heat_max": 13, "lat": 6005039.2001243038, "lon": 32506801.19564756, "id_full": "consumers-1", "type": "H" }, "geometry": { "type": "Point", "coordinates": [ 32506801.195647560060024, 6005039.200124303810298 ] } },
{ "type": "Feature", "properties": { "id": 2, "addr:city": "Heide", "addr:country": "DE", "addr:housenumber": "23", "addr:postcode": "25746", "addr:street": "Hans-Böckler-Straße", "building": "apartments", "name": null, "opening_hours": null, "shop": null, "toilets:wheelchair": null, "website": null, "wheelchair": null, "craft": null, "fixme": null, "P_heat_max": 31, "lat": 6005117.4716855129, "lon": 32506947.681407206, "id_full": "consumers-2", "type": "H" }, "geometry": { "type": "Point", "coordinates": [ 32506947.681407205760479, 6005117.471685512922704 ] } },
{ "type": "Feature", "properties": { "id": 3, "addr:city": "Heide", "addr:country": null, "addr:housenumber": "15", "addr:postcode": "25746", "addr:street": "Neue Heimat", "building": "house", "name": null, "opening_hours": null, "shop": null, "toilets:wheelchair": null, "website": null, "wheelchair": null, "craft": null, "fixme": null, "P_heat_max": 31, "lat": 6004965.1418920262, "lon": 32506936.092872586, "id_full": "consumers-3", "type": "H" }, "geometry": { "type": "Point", "coordinates": [ 32506936.092872586101294, 6004965.141892026178539 ] } },
{ "type": "Feature", "properties": { "id": 4, "addr:city": "Heide", "addr:country": "DE", "addr:housenumber": "18", "addr:postcode": "25746", "addr:street": "Stettiner Straße", "building": "apartments", "name": null, "opening_hours": null, "shop": null, "toilets:wheelchair": null, "website": null, "wheelchair": null, "craft": null, "fixme": null, "P_heat_max": 10, "lat": 6005020.7555000177, "lon": 32506912.159830295, "id_full": "consumers-4", "type": "H" }, "geometry": { "type": "Point", "coordinates": [ 32506912.159830294549465, 6005020.755500017665327 ] } },
{ "type": "Feature", "properties": { "id": 5, "addr:city": "Heide", "addr:country": "DE", "addr:housenumber": "24", "addr:postcode": "25746", "addr:street": "Hans-Böckler-Straße", "building": "apartments", "name": null, "opening_hours": null, "shop": null, "toilets:wheelchair": null, "website": null, "wheelchair": null, "craft": null, "fixme": null, "P_heat_max": 31, "lat": 6005069.0707217436, "lon": 32506905.141416907, "id_full": "consumers-5", "type": "H" }, "geometry": { "type": "Point", "coordinates": [ 32506905.141416907310486, 6005069.070721743628383 ] } },
{ "type": "Feature", "properties": { "id": 6, "addr:city": "Heide", "addr:country": "DE", "addr:housenumber": "14", "addr:postcode": "25746", "addr:street": "Hans-Böckler-Straße", "building": "apartments", "name": null, "opening_hours": null, "shop": null, "toilets:wheelchair": null, "website": null, "wheelchair": null, "craft": null, "fixme": null, "P_heat_max": 29, "lat": 6005157.8084080378, "lon": 32506860.149385698, "id_full": "consumers-6", "type": "H" }, "geometry": { "type": "Point", "coordinates": [ 32506860.149385698139668, 6005157.808408037759364 ] } },
{ "type": "Feature", "properties": { "id": 7, "addr:city": "Heide", "addr:country": null, "addr:housenumber": "38", "addr:postcode": "25746", "addr:street": "Neue Heimat", "building": "house", "name": null, "opening_hours": null, "shop": null, "toilets:wheelchair": null, "website": null, "wheelchair": null, "craft": null, "fixme": null, "P_heat_max": 19, "lat": 6004946.5755345263, "lon": 32506980.289583649, "id_full": "consumers-7", "type": "H" }, "geometry": { "type": "Point", "coordinates": [ 32506980.289583649486303, 6004946.575534526258707 ] } },
{ "type": "Feature", "properties": { "id": 8, "addr:city": "Heide", "addr:country": null, "addr:housenumber": "14", "addr:postcode": "25746", "addr:street": "Neue Heimat", "building": "house", "name": null, "opening_hours": null, "shop": null, "toilets:wheelchair": null, "website": null, "wheelchair": null, "craft": null, "fixme": null, "P_heat_max": 37, "lat": 6004969.5314309904, "lon": 32506907.347752009, "id_full": "consumers-8", "type": "H" }, "geometry": { "type": "Point", "coordinates": [ 32506907.347752008587122, 6004969.531430990435183 ] } },
{ "type": "Feature", "properties": { "id": 9, "addr:city": "Heide", "addr:country": null, "addr:housenumber": "12", "addr:postcode": "25746", "addr:street": "Im Redder", "building": "apartments", "name": null, "opening_hours": null, "shop": null, "toilets:wheelchair": null, "website": null, "wheelchair": null, "craft": null, "fixme": null, "P_heat_max": 43, "lat": 6005105.8724987824, "lon": 32506831.701748647, "id_full": "consumers-9", "type": "H" }, "geometry": { "type": "Point", "coordinates": [ 32506831.70174864679575, 6005105.872498782351613 ] } },
{ "type": "Feature", "properties": { "id": 10, "addr:city": "Heide", "addr:country": null, "addr:housenumber": "11", "addr:postcode": "25746", "addr:street": "Im Redder", "building": "apartments", "name": null, "opening_hours": null, "shop": null, "toilets:wheelchair": null, "website": null, "wheelchair": null, "craft": null, "fixme": null, "P_heat_max": 21, "lat": 6005102.6700107055, "lon": 32506807.097907729, "id_full": "consumers-10", "type": "H" }, "geometry": { "type": "Point", "coordinates": [ 32506807.097907729446888, 6005102.670010705478489 ] } },
{ "type": "Feature", "properties": { "id": 11, "addr:city": "Heide", "addr:country": null, "addr:housenumber": "1", "addr:postcode": "25746", "addr:street": "Neue Heimat", "building": "house", "name": null, "opening_hours": null, "shop": null, "toilets:wheelchair": null, "website": null, "wheelchair": null, "craft": null, "fixme": null, "P_heat_max": 24, "lat": 6005003.6841488769, "lon": 32506912.889645789, "id_full": "consumers-11", "type": "H" }, "geometry": { "type": "Point", "coordinates": [ 32506912.889645788818598, 6005003.684148876927793 ] } },
{ "type": "Feature", "properties": { "id": 12, "addr:city": "Heide", "addr:country": null, "addr:housenumber": "15", "addr:postcode": "25746", "addr:street": "Im Redder", "building": "apartments", "name": null, "opening_hours": null, "shop": null, "toilets:wheelchair": null, "website": null, "wheelchair": null, "craft": null, "fixme": null, "P_heat_max": 43, "lat": 6005124.2090706732, "lon": 32506805.105399035, "id_full": "consumers-12", "type": "H" }, "geometry": { "type": "Point", "coordinates": [ 32506805.105399034917355, 6005124.209070673212409 ] } },
{ "type": "Feature", "properties": { "id": 13, "addr:city": "Heide", "addr:country": null, "addr:housenumber": "23", "addr:postcode": "25746", "addr:street": "Neue Heimat", "building": "house", "name": null, "opening_hours": null, "shop": null, "toilets:wheelchair": null, "website": null, "wheelchair": null, "craft": null, "fixme": null, "P_heat_max": 18, "lat": 6004967.7664943011, "lon": 32506969.710390974, "id_full": "consumers-13", "type": "H" }, "geometry": { "type": "Point", "coordinates": [ 32506969.710390973836184, 6004967.766494301147759 ] } },
{ "type": "Feature", "properties": { "id": 14, "addr:city": "Heide", "addr:country": "DE", "addr:housenumber": "28", "addr:postcode": "25746", "addr:street": "Hans-Böckler-Straße", "building": "house", "name": null, "opening_hours": null, "shop": null, "toilets:wheelchair": null, "website": null, "wheelchair": null, "craft": null, "fixme": null, "P_heat_max": 47, "lat": 6004917.8796548136, "lon": 32506988.938321896, "id_full": "consumers-14", "type": "H" }, "geometry": { "type": "Point", "coordinates": [ 32506988.938321895897388, 6004917.879654813557863 ] } },
{ "type": "Feature", "properties": { "id": 15, "addr:city": "Heide", "addr:country": null, "addr:housenumber": "7", "addr:postcode": "25746", "addr:street": "Im Redder", "building": "apartments", "name": null, "opening_hours": null, "shop": null, "toilets:wheelchair": null, "website": null, "wheelchair": null, "craft": null, "fixme": null, "P_heat_max": 19, "lat": 6005079.1816411465, "lon": 32506809.699875001, "id_full": "consumers-15", "type": "H" }, "geometry": { "type": "Point", "coordinates": [ 32506809.699875, 6005079.181641146540642 ] } },
{ "type": "Feature", "properties": { "id": 16, "addr:city": "Heide", "addr:country": null, "addr:housenumber": "24", "addr:postcode": "25746", "addr:street": "Neue Heimat", "building": "house", "name": null, "opening_hours": null, "shop": null, "toilets:wheelchair": null, "website": null, "wheelchair": null, "craft": null, "fixme": null, "P_heat_max": 24, "lat": 6004938.8065498779, "lon": 32506937.939764459, "id_full": "consumers-16", "type": "H" }, "geometry": { "type": "Point", "coordinates": [ 32506937.939764458686113, 6004938.806549877859652 ] } },
{ "type": "Feature", "properties": { "id": 17, "addr:city": "Heide", "addr:country": null, "addr:housenumber": "8", "addr:postcode": "25746", "addr:street": "Im Redder", "building": "apartments", "name": null, "opening_hours": null, "shop": null, "toilets:wheelchair": null, "website": null, "wheelchair": null, "craft": null, "fixme": null, "P_heat_max": 35, "lat": 6005081.0198890623, "lon": 32506830.531552043, "id_full": "consumers-17", "type": "H" }, "geometry": { "type": "Point", "coordinates": [ 32506830.531552042812109, 6005081.019889062270522 ] } },
{ "type": "Feature", "properties": { "id": 18, "addr:city": "Heide", "addr:country": null, "addr:housenumber": "3", "addr:postcode": "25746", "addr:street": "Im Redder", "building": "apartments", "name": null, "opening_hours": null, "shop": null, "toilets:wheelchair": null, "website": null, "wheelchair": null, "craft": null, "fixme": null, "P_heat_max": 13, "lat": 6005056.8914554343, "lon": 32506810.789779346, "id_full": "consumers-18", "type": "H" }, "geometry": { "type": "Point", "coordinates": [ 32506810.789779346436262, 6005056.891455434262753 ] } },
{ "type": "Feature", "properties": { "id": 19, "addr:city": "Heide", "addr:country": null, "addr:housenumber": "20", "addr:postcode": "25746", "addr:street": "Im Redder", "building": "apartments", "name": null, "opening_hours": null, "shop": null, "toilets:wheelchair": null, "website": null, "wheelchair": null, "craft": null, "fixme": null, "P_heat_max": 22, "lat": 6005150.1473607281, "lon": 32506826.503114428, "id_full": "consumers-19", "type": "H" }, "geometry": { "type": "Point", "coordinates": [ 32506826.503114428371191, 6005150.147360728122294 ] } },
{ "type": "Feature", "properties": { "id": 20, "addr:city": "Heide", "addr:country": null, "addr:housenumber": "19", "addr:postcode": "25746", "addr:street": "Im Redder", "building": "apartments", "name": null, "opening_hours": null, "shop": null, "toilets:wheelchair": null, "website": null, "wheelchair": null, "craft": null, "fixme": null, "P_heat_max": 31, "lat": 6005148.5918906117, "lon": 32506805.018891096, "id_full": "consumers-20", "type": "H" }, "geometry": { "type": "Point", "coordinates": [ 32506805.018891096115112, 6005148.591890611685812 ] } },
{ "type": "Feature", "properties": { "id": 21, "addr:city": "Heide", "addr:country": null, "addr:housenumber": "4", "addr:postcode": "25746", "addr:street": "Im Redder", "building": "apartments", "name": null, "opening_hours": null, "shop": null, "toilets:wheelchair": null, "website": null, "wheelchair": null, "craft": null, "fixme": null, "P_heat_max": 43, "lat": 6005058.4252985809, "lon": 32506832.678980179, "id_full": "consumers-21", "type": "H" }, "geometry": { "type": "Point", "coordinates": [ 32506832.678980179131031, 6005058.425298580899835 ] } },
{ "type": "Feature", "properties": { "id": 22, "addr:city": "Heide", "addr:country": null, "addr:housenumber": "15", "addr:postcode": "25746", "addr:street": "Stettiner Straße", "building": "apartments", "name": null, "opening_hours": null, "shop": null, "toilets:wheelchair": null, "website": null, "wheelchair": null, "craft": null, "fixme": null, "P_heat_max": 23, "lat": 6005049.6898071039, "lon": 32506890.606906869, "id_full": "consumers-22", "type": "H" }, "geometry": { "type": "Point", "coordinates": [ 32506890.606906868517399, 6005049.689807103946805 ] } },
{ "type": "Feature", "properties": { "id": 23, "addr:city": "Heide", "addr:country": "DE", "addr:housenumber": "16", "addr:postcode": "25746", "addr:street": "Hans-Böckler-Straße", "building": "apartments", "name": null, "opening_hours": null, "shop": null, "toilets:wheelchair": null, "website": null, "wheelchair": null, "craft": null, "fixme": null, "P_heat_max": 48, "lat": 6005143.9086001301, "lon": 32506878.119526301, "id_full": "consumers-23", "type": "H" }, "geometry": { "type": "Point", "coordinates": [ 32506878.119526300579309, 6005143.90860013011843 ] } },
{ "type": "Feature", "properties": { "id": 24, "addr:city": "Heide", "addr:country": "DE", "addr:housenumber": "20", "addr:postcode": "25746", "addr:street": "Hans-Böckler-Straße", "building": "apartments", "name": null, "opening_hours": null, "shop": null, "toilets:wheelchair": null, "website": null, "wheelchair": null, "craft": null, "fixme": null, "P_heat_max": 41, "lat": 6005111.882618608, "lon": 32506885.800216243, "id_full": "consumers-24", "type": "H" }, "geometry": { "type": "Point", "coordinates": [ 32506885.800216242671013, 6005111.882618607953191 ] } },
{ "type": "Feature", "properties": { "id": 25, "addr:city": "Heide", "addr:country": null, "addr:housenumber": "4", "addr:postcode": "25746", "addr:street": "Neue Heimat", "building": "house", "name": null, "opening_hours": null, "shop": null, "toilets:wheelchair": null, "website": null, "wheelchair": null, "craft": null, "fixme": null, "P_heat_max": 11, "lat": 6004998.2642213628, "lon": 32506887.716799375, "id_full": "consumers-25", "type": "H" }, "geometry": { "type": "Point", "coordinates": [ 32506887.71679937466979, 6004998.264221362769604 ] } },
{ "type": "Feature", "properties": { "id": 26, "addr:city": "Heide", "addr:country": null, "addr:housenumber": "16", "addr:postcode": "25746", "addr:street": "Im Redder", "building": "apartments", "name": null, "opening_hours": null, "shop": null, "toilets:wheelchair": null, "website": null, "wheelchair": null, "craft": null, "fixme": null, "P_heat_max": 30, "lat": 6005127.3075135322, "lon": 32506832.157563895, "id_full": "consumers-26", "type": "H" }, "geometry": { "type": "Point", "coordinates": [ 32506832.157563894987106, 6005127.307513532228768 ] } },
{ "type": "Feature", "properties": { "id": 27, "addr:city": "Heide", "addr:country": null, "addr:housenumber": "11", "addr:postcode": "25746", "addr:street": "Stettiner Straße", "building": "apartments", "name": null, "opening_hours": null, "shop": null, "toilets:wheelchair": null, "website": null, "wheelchair": null, "craft": null, "fixme": null, "P_heat_max": 42, "lat": 6005045.7003009589, "lon": 32506849.502673149, "id_full": "consumers-27", "type": "H" }, "geometry": { "type": "Point", "coordinates": [ 32506849.502673149108887, 6005045.700300958938897 ] } },
{ "type": "Feature", "properties": { "id": 28, "addr:city": null, "addr:country": null, "addr:housenumber": null, "addr:postcode": null, "addr:street": null, "building": "commercial", "name": null, "opening_hours": null, "shop": null, "toilets:wheelchair": null, "website": null, "wheelchair": null, "craft": null, "fixme": null, "P_heat_max": 38, "lat": 6005117.5736557655, "lon": 32506748.283596221, "id_full": "consumers-28", "type": "H" }, "geometry": { "type": "Point", "coordinates": [ 32506748.283596221357584, 6005117.573655765503645 ] } },
{ "type": "Feature", "properties": { "id": 29, "addr:city": "Heide", "addr:country": "DE", "addr:housenumber": "8", "addr:postcode": "25746", "addr:street": "Hamburger Straße", "building": "commercial", "name": null, "opening_hours": null, "shop": null, "toilets:wheelchair": null, "website": null, "wheelchair": null, "craft": null, "fixme": null, "P_heat_max": 12, "lat": 6005268.9250492593, "lon": 32506643.900641382, "id_full": "consumers-29", "type": "H" }, "geometry": { "type": "Point", "coordinates": [ 32506643.90064138174057, 6005268.925049259327352 ] } },
{ "type": "Feature", "properties": { "id": 30, "addr:city": "Heide", "addr:country": "DE", "addr:housenumber": "16", "addr:postcode": "25746", "addr:street": "Hamburger Straße", "building": "house", "name": null, "opening_hours": null, "shop": null, "toilets:wheelchair": null, "website": null, "wheelchair": null, "craft": null, "fixme": null, "P_heat_max": 45, "lat": 6005290.2845184356, "lon": 32506704.650234036, "id_full": "consumers-30", "type": "H" }, "geometry": { "type": "Point", "coordinates": [ 32506704.650234036147594, 6005290.28451843559742 ] } },
{ "type": "Feature", "properties": { "id": 31, "addr:city": "Heide", "addr:country": "DE", "addr:housenumber": "4", "addr:postcode": "25746", "addr:street": "Hamburger Straße", "building": "residential", "name": null, "opening_hours": null, "shop": null, "toilets:wheelchair": null, "website": null, "wheelchair": null, "craft": null, "fixme": null, "P_heat_max": 49, "lat": 6005258.7629708126, "lon": 32506614.063669916, "id_full": "consumers-31", "type": "H" }, "geometry": { "type": "Point", "coordinates": [ 32506614.063669916242361, 6005258.762970812618732 ] } },
{ "type": "Feature", "properties": { "id": 32, "addr:city": "Heide", "addr:country": "DE", "addr:housenumber": "2", "addr:postcode": "25746", "addr:street": "Hamburger Straße", "building": "commercial", "name": null, "opening_hours": null, "shop": null, "toilets:wheelchair": null, "website": null, "wheelchair": null, "craft": null, "fixme": null, "P_heat_max": 36, "lat": 6005256.8101138333, "lon": 32506605.618858032, "id_full": "consumers-32", "type": "H" }, "geometry": { "type": "Point", "coordinates": [ 32506605.618858031928539, 6005256.810113833285868 ] } },
{ "type": "Feature", "properties": { "id": 33, "addr:city": "Heide", "addr:country": "DE", "addr:housenumber": "20", "addr:postcode": "25746", "addr:street": "Hamburger Straße", "building": "house", "name": null, "opening_hours": null, "shop": null, "toilets:wheelchair": null, "website": null, "wheelchair": null, "craft": null, "fixme": null, "P_heat_max": 49, "lat": 6005297.4618501561, "lon": 32506730.313123833, "id_full": "consumers-33", "type": "H" }, "geometry": { "type": "Point", "coordinates": [ 32506730.31312383338809, 6005297.461850156076252 ] } },
{ "type": "Feature", "properties": { "id": 34, "addr:city": "Heide", "addr:country": "DE", "addr:housenumber": "24", "addr:postcode": "25746", "addr:street": "Hamburger Straße", "building": "house", "name": null, "opening_hours": null, "shop": null, "toilets:wheelchair": null, "website": null, "wheelchair": null, "craft": null, "fixme": null, "P_heat_max": 36, "lat": 6005301.12637321, "lon": 32506753.056819227, "id_full": "consumers-34", "type": "H" }, "geometry": { "type": "Point", "coordinates": [ 32506753.056819226592779, 6005301.126373209990561 ] } },
{ "type": "Feature", "properties": { "id": 35, "addr:city": "Heide", "addr:country": "DE", "addr:housenumber": "30", "addr:postcode": "25746", "addr:street": "Hamburger Straße", "building": "commercial", "name": null, "opening_hours": null, "shop": null, "toilets:wheelchair": null, "website": null, "wheelchair": null, "craft": null, "fixme": null, "P_heat_max": 36, "lat": 6005311.0729700895, "lon": 32506788.281840146, "id_full": "consumers-35", "type": "H" }, "geometry": { "type": "Point", "coordinates": [ 32506788.281840145587921, 6005311.072970089502633 ] } },
{ "type": "Feature", "properties": { "id": 36, "addr:city": "Heide", "addr:country": "DE", "addr:housenumber": "18", "addr:postcode": "25746", "addr:street": "Hamburger Straße", "building": "house", "name": null, "opening_hours": null, "shop": null, "toilets:wheelchair": null, "website": null, "wheelchair": null, "craft": null, "fixme": null, "P_heat_max": 45, "lat": 6005294.7157154214, "lon": 32506718.955610078, "id_full": "consumers-36", "type": "H" }, "geometry": { "type": "Point", "coordinates": [ 32506718.955610077828169, 6005294.715715421363711 ] } },
{ "type": "Feature", "properties": { "id": 37, "addr:city": "Heide", "addr:country": "DE", "addr:housenumber": "10", "addr:postcode": "25746", "addr:street": "Hamburger Straße", "building": "commercial", "name": null, "opening_hours": null, "shop": null, "toilets:wheelchair": null, "website": null, "wheelchair": null, "craft": null, "fixme": null, "P_heat_max": 41, "lat": 6005274.7220947165, "lon": 32506666.151909608, "id_full": "consumers-37", "type": "H" }, "geometry": { "type": "Point", "coordinates": [ 32506666.151909608393908, 6005274.722094716504216 ] } },
{ "type": "Feature", "properties": { "id": 38, "addr:city": "Heide", "addr:country": "DE", "addr:housenumber": "26-28", "addr:postcode": "25746", "addr:street": "Hamburger Straße", "building": "commercial", "name": null, "opening_hours": null, "shop": null, "toilets:wheelchair": null, "website": null, "wheelchair": null, "craft": null, "fixme": null, "P_heat_max": 14, "lat": 6005303.687501289, "lon": 32506769.625647165, "id_full": "consumers-38", "type": "H" }, "geometry": { "type": "Point", "coordinates": [ 32506769.625647164881229, 6005303.687501288950443 ] } },
{ "type": "Feature", "properties": { "id": 39, "addr:city": "Heide", "addr:country": "DE", "addr:housenumber": "14", "addr:postcode": "25746", "addr:street": "Hamburger Straße", "building": "commercial", "name": null, "opening_hours": null, "shop": null, "toilets:wheelchair": null, "website": null, "wheelchair": null, "craft": null, "fixme": null, "P_heat_max": 44, "lat": 6005287.4198318198, "lon": 32506692.624002319, "id_full": "consumers-39", "type": "H" }, "geometry": { "type": "Point", "coordinates": [ 32506692.624002318829298, 6005287.419831819832325 ] } },
{ "type": "Feature", "properties": { "id": 40, "addr:city": "Heide", "addr:country": "DE", "addr:housenumber": "22", "addr:postcode": "25746", "addr:street": "Hamburger Straße", "building": "residential", "name": null, "opening_hours": null, "shop": null, "toilets:wheelchair": null, "website": null, "wheelchair": null, "craft": null, "fixme": null, "P_heat_max": 48, "lat": 6005297.435577265, "lon": 32506744.274268441, "id_full": "consumers-40", "type": "H" }, "geometry": { "type": "Point", "coordinates": [ 32506744.274268440902233, 6005297.435577264986932 ] } },
{ "type": "Feature", "properties": { "id": 41, "addr:city": "Heide", "addr:country": "DE", "addr:housenumber": "6", "addr:postcode": "25746", "addr:street": "Hamburger Straße", "building": "apartments", "name": null, "opening_hours": null, "shop": null, "toilets:wheelchair": null, "website": null, "wheelchair": null, "craft": null, "fixme": null, "P_heat_max": 38, "lat": 6005262.7867935933, "lon": 32506628.192365296, "id_full": "consumers-41", "type": "H" }, "geometry": { "type": "Point", "coordinates": [ 32506628.192365296185017, 6005262.78679359331727 ] } },
{ "type": "Feature", "properties": { "id": 42, "addr:city": "Heide", "addr:country": "DE", "addr:housenumber": "34", "addr:postcode": "25746", "addr:street": "Hamburger Straße", "building": "commercial", "name": "expert", "opening_hours": "Mo-Fr 10:00-19:00; Sa 10:00-18:00", "shop": "electronics", "toilets:wheelchair": "no", "website": "https://www.expert.de/heide", "wheelchair": "yes", "craft": null, "fixme": null, "P_heat_max": 31, "lat": 6005279.8268856313, "lon": 32506833.239296399, "id_full": "consumers-42", "type": "H" }, "geometry": { "type": "Point", "coordinates": [ 32506833.239296399056911, 6005279.82688563130796 ] } },
{ "type": "Feature", "properties": { "id": 43, "addr:city": "Heide", "addr:country": "DE", "addr:housenumber": "12", "addr:postcode": "25746", "addr:street": "Hamburger Straße", "building": "apartments", "name": null, "opening_hours": null, "shop": null, "toilets:wheelchair": null, "website": null, "wheelchair": null, "craft": null, "fixme": null, "P_heat_max": 27, "lat": 6005278.9765616804, "lon": 32506682.052598346, "id_full": "consumers-43", "type": "H" }, "geometry": { "type": "Point", "coordinates": [ 32506682.052598346024752, 6005278.976561680436134 ] } },
{ "type": "Feature", "properties": { "id": 44, "addr:city": null, "addr:country": null, "addr:housenumber": null, "addr:postcode": null, "addr:street": null, "building": "commercial", "name": null, "opening_hours": null, "shop": null, "toilets:wheelchair": null, "website": null, "wheelchair": null, "craft": null, "fixme": null, "P_heat_max": 16, "lat": 6004937.8572175251, "lon": 32506694.255998805, "id_full": "consumers-44", "type": "H" }, "geometry": { "type": "Point", "coordinates": [ 32506694.255998805165291, 6004937.857217525132 ] } },
{ "type": "Feature", "properties": { "id": 45, "addr:city": "Heide", "addr:country": null, "addr:housenumber": "76b", "addr:postcode": "25746", "addr:street": "Berliner Straße", "building": "house", "name": null, "opening_hours": null, "shop": null, "toilets:wheelchair": null, "website": null, "wheelchair": null, "craft": null, "fixme": null, "P_heat_max": 47, "lat": 6004774.3591262139, "lon": 32506927.587524947, "id_full": "consumers-45", "type": "H" }, "geometry": { "type": "Point", "coordinates": [ 32506927.587524946779013, 6004774.359126213937998 ] } },
{ "type": "Feature", "properties": { "id": 46, "addr:city": "Heide", "addr:country": null, "addr:housenumber": "22", "addr:postcode": "25746", "addr:street": "Rüsdorfer Straße", "building": "house", "name": null, "opening_hours": null, "shop": null, "toilets:wheelchair": null, "website": null, "wheelchair": null, "craft": null, "fixme": null, "P_heat_max": 30, "lat": 6004956.1403770419, "lon": 32506790.224478904, "id_full": "consumers-46", "type": "H" }, "geometry": { "type": "Point", "coordinates": [ 32506790.224478904157877, 6004956.140377041883767 ] } },
{ "type": "Feature", "properties": { "id": 47, "addr:city": "Heide", "addr:country": null, "addr:housenumber": "51", "addr:postcode": "25746", "addr:street": "Rüsdorfer Straße", "building": "detached", "name": null, "opening_hours": null, "shop": null, "toilets:wheelchair": null, "website": null, "wheelchair": null, "craft": null, "fixme": null, "P_heat_max": 49, "lat": 6004976.8933069119, "lon": 32506800.673641693, "id_full": "consumers-47", "type": "H" }, "geometry": { "type": "Point", "coordinates": [ 32506800.673641692847013, 6004976.893306911922991 ] } },
{ "type": "Feature", "properties": { "id": 48, "addr:city": "Heide", "addr:country": "DE", "addr:housenumber": "32", "addr:postcode": "25746", "addr:street": "Hans-Böckler-Straße", "building": "house", "name": null, "opening_hours": null, "shop": null, "toilets:wheelchair": null, "website": null, "wheelchair": null, "craft": null, "fixme": null, "P_heat_max": 29, "lat": 6004880.5506579829, "lon": 32507019.014392219, "id_full": "consumers-48", "type": "H" }, "geometry": { "type": "Point", "coordinates": [ 32507019.014392219483852, 6004880.550657982937992 ] } },
{ "type": "Feature", "properties": { "id": 49, "addr:city": "Heide", "addr:country": null, "addr:housenumber": "33", "addr:postcode": "25746", "addr:street": "Rüsdorfer Straße", "building": "house", "name": null, "opening_hours": null, "shop": null, "toilets:wheelchair": null, "website": null, "wheelchair": null, "craft": null, "fixme": null, "P_heat_max": 49, "lat": 6005020.8652904602, "lon": 32506703.973344795, "id_full": "consumers-49", "type": "H" }, "geometry": { "type": "Point", "coordinates": [ 32506703.973344795405865, 6005020.865290460176766 ] } },
{ "type": "Feature", "properties": { "id": 50, "addr:city": "Heide", "addr:country": null, "addr:housenumber": "76a", "addr:postcode": "25746", "addr:street": "Berliner Straße", "building": "house", "name": null, "opening_hours": null, "shop": null, "toilets:wheelchair": null, "website": null, "wheelchair": null, "craft": null, "fixme": null, "P_heat_max": 12, "lat": 6004753.8610179368, "lon": 32506933.140344154, "id_full": "consumers-50", "type": "H" }, "geometry": { "type": "Point", "coordinates": [ 32506933.140344154089689, 6004753.861017936840653 ] } },
{ "type": "Feature", "properties": { "id": 51, "addr:city": null, "addr:country": null, "addr:housenumber": null, "addr:postcode": null, "addr:street": null, "building": "house", "name": null, "opening_hours": null, "shop": null, "toilets:wheelchair": null, "website": null, "wheelchair": null, "craft": null, "fixme": null, "P_heat_max": 24, "lat": 6004722.3495585024, "lon": 32506942.488591094, "id_full": "consumers-51", "type": "H" }, "geometry": { "type": "Point", "coordinates": [ 32506942.488591093569994, 6004722.349558502435684 ] } },
{ "type": "Feature", "properties": { "id": 52, "addr:city": "Heide", "addr:country": null, "addr:housenumber": "39", "addr:postcode": "25746", "addr:street": "Rüsdorfer Straße", "building": "house", "name": null, "opening_hours": null, "shop": null, "toilets:wheelchair": null, "website": null, "wheelchair": null, "craft": null, "fixme": null, "P_heat_max": 21, "lat": 6005023.2842090596, "lon": 32506735.023828138, "id_full": "consumers-52", "type": "H" }, "geometry": { "type": "Point", "coordinates": [ 32506735.023828137665987, 6005023.284209059551358 ] } },
{ "type": "Feature", "properties": { "id": 53, "addr:city": "Heide", "addr:country": null, "addr:housenumber": "60", "addr:postcode": "25746", "addr:street": "Rüsdorfer Straße", "building": "residential", "name": null, "opening_hours": null, "shop": null, "toilets:wheelchair": null, "website": null, "wheelchair": null, "craft": null, "fixme": null, "P_heat_max": 11, "lat": 6004793.0713815745, "lon": 32507000.015993539, "id_full": "consumers-53", "type": "H" }, "geometry": { "type": "Point", "coordinates": [ 32507000.015993539243937, 6004793.071381574496627 ] } },
{ "type": "Feature", "properties": { "id": 54, "addr:city": "Heide", "addr:country": null, "addr:housenumber": "5", "addr:postcode": "25746", "addr:street": "Stettiner Straße", "building": "apartments", "name": null, "opening_hours": null, "shop": null, "toilets:wheelchair": null, "website": null, "wheelchair": null, "craft": null, "fixme": null, "P_heat_max": 36, "lat": 6005046.1254884526, "lon": 32506779.872779753, "id_full": "consumers-54", "type": "H" }, "geometry": { "type": "Point", "coordinates": [ 32506779.872779753059149, 6005046.125488452613354 ] } },
{ "type": "Feature", "properties": { "id": 55, "addr:city": "Heide", "addr:country": null, "addr:housenumber": "55", "addr:postcode": "25746", "addr:street": "Rüsdorfer Straße", "building": "detached", "name": null, "opening_hours": null, "shop": null, "toilets:wheelchair": null, "website": null, "wheelchair": null, "craft": null, "fixme": null, "P_heat_max": 14, "lat": 6004963.519941763, "lon": 32506818.462146334, "id_full": "consumers-55", "type": "H" }, "geometry": { "type": "Point", "coordinates": [ 32506818.462146334350109, 6004963.519941763021052 ] } },
{ "type": "Feature", "properties": { "id": 56, "addr:city": "Heide", "addr:country": null, "addr:housenumber": "57", "addr:postcode": "25746", "addr:street": "Rüsdorfer Straße", "building": "detached", "name": null, "opening_hours": null, "shop": null, "toilets:wheelchair": null, "website": null, "wheelchair": null, "craft": null, "fixme": null, "P_heat_max": 48, "lat": 6004956.3345135441, "lon": 32506828.5784017, "id_full": "consumers-56", "type": "H" }, "geometry": { "type": "Point", "coordinates": [ 32506828.578401699662209, 6004956.334513544104993 ] } },
{ "type": "Feature", "properties": { "id": 57, "addr:city": "Heide", "addr:country": null, "addr:housenumber": "96", "addr:postcode": "25746", "addr:street": "Berliner Straße", "building": "house", "name": null, "opening_hours": null, "shop": null, "toilets:wheelchair": null, "website": null, "wheelchair": null, "craft": null, "fixme": null, "P_heat_max": 27, "lat": 6004684.7745752875, "lon": 32506812.902853854, "id_full": "consumers-57", "type": "H" }, "geometry": { "type": "Point", "coordinates": [ 32506812.902853854000568, 6004684.774575287476182 ] } },
{ "type": "Feature", "properties": { "id": 58, "addr:city": "Heide", "addr:country": null, "addr:housenumber": "24", "addr:postcode": "25746", "addr:street": "Rüsdorfer Straße", "building": "house", "name": null, "opening_hours": null, "shop": null, "toilets:wheelchair": null, "website": null, "wheelchair": null, "craft": null, "fixme": null, "P_heat_max": 32, "lat": 6004949.1519113015, "lon": 32506801.047282852, "id_full": "consumers-58", "type": "H" }, "geometry": { "type": "Point", "coordinates": [ 32506801.047282852232456, 6004949.151911301538348 ] } },
{ "type": "Feature", "properties": { "id": 59, "addr:city": "Heide", "addr:country": null, "addr:housenumber": "63", "addr:postcode": "25746", "addr:street": "Rüsdorfer Straße", "building": "house", "name": null, "opening_hours": null, "shop": null, "toilets:wheelchair": null, "website": null, "wheelchair": null, "craft": null, "fixme": null, "P_heat_max": 23, "lat": 6004933.7556771878, "lon": 32506858.966233443, "id_full": "consumers-59", "type": "H" }, "geometry": { "type": "Point", "coordinates": [ 32506858.966233443468809, 6004933.755677187815309 ] } },
{ "type": "Feature", "properties": { "id": 60, "addr:city": "Heide", "addr:country": null, "addr:housenumber": "82-88", "addr:postcode": "25746", "addr:street": "Berliner Straße", "building": "commercial", "name": "Raiffeisen Technik Westküste", "opening_hours": null, "shop": null, "toilets:wheelchair": null, "website": "http://geno.raiffeisen.com/hage-technik-heide/", "wheelchair": null, "craft": "agricultural_engines", "fixme": null, "P_heat_max": 20, "lat": 6004703.7686009808, "lon": 32506911.747826271, "id_full": "consumers-60", "type": "H" }, "geometry": { "type": "Point", "coordinates": [ 32506911.747826270759106, 6004703.768600980751216 ] } },
{ "type": "Feature", "properties": { "id": 61, "addr:city": "Heide", "addr:country": null, "addr:housenumber": "58", "addr:postcode": "25746", "addr:street": "Rüsdorfer Straße", "building": "detached", "name": null, "opening_hours": null, "shop": null, "toilets:wheelchair": null, "website": null, "wheelchair": null, "craft": null, "fixme": null, "P_heat_max": 25, "lat": 6004809.1633872585, "lon": 32506988.24335172, "id_full": "consumers-61", "type": "H" }, "geometry": { "type": "Point", "coordinates": [ 32506988.243351720273495, 6004809.163387258537114 ] } },
{ "type": "Feature", "properties": { "id": 62, "addr:city": "Heide", "addr:country": "DE", "addr:housenumber": "87", "addr:postcode": "25746", "addr:street": "Rüsdorfer Straße", "building": "commercial", "name": null, "opening_hours": null, "shop": null, "toilets:wheelchair": null, "website": null, "wheelchair": null, "craft": null, "fixme": null, "P_heat_max": 22, "lat": 6004828.5793374656, "lon": 32507038.519862838, "id_full": "consumers-62", "type": "H" }, "geometry": { "type": "Point", "coordinates": [ 32507038.519862838089466, 6004828.579337465576828 ] } },
{ "type": "Feature", "properties": { "id": 63, "addr:city": "Heide", "addr:country": null, "addr:housenumber": "71", "addr:postcode": "25746", "addr:street": "Rüsdorfer Straße", "building": "detached", "name": null, "opening_hours": null, "shop": null, "toilets:wheelchair": null, "website": null, "wheelchair": null, "craft": null, "fixme": null, "P_heat_max": 11, "lat": 6004899.3544207178, "lon": 32506907.280615181, "id_full": "consumers-63", "type": "H" }, "geometry": { "type": "Point", "coordinates": [ 32506907.28061518073082, 6004899.354420717805624 ] } },
{ "type": "Feature", "properties": { "id": 64, "addr:city": "Heide", "addr:country": null, "addr:housenumber": "37", "addr:postcode": "25746", "addr:street": "Rüsdorfer Straße", "building": "house", "name": null, "opening_hours": null, "shop": null, "toilets:wheelchair": null, "website": null, "wheelchair": null, "craft": null, "fixme": null, "P_heat_max": 41, "lat": 6005021.0393528491, "lon": 32506724.17186816, "id_full": "consumers-64", "type": "H" }, "geometry": { "type": "Point", "coordinates": [ 32506724.171868160367012, 6005021.039352849125862 ] } },
{ "type": "Feature", "properties": { "id": 65, "addr:city": "Heide", "addr:country": null, "addr:housenumber": "81", "addr:postcode": "25746", "addr:street": "Rüsdorfer Straße", "building": "house", "name": null, "opening_hours": null, "shop": null, "toilets:wheelchair": null, "website": null, "wheelchair": null, "craft": null, "fixme": null, "P_heat_max": 49, "lat": 6004852.6126259826, "lon": 32506969.203761656, "id_full": "consumers-65", "type": "H" }, "geometry": { "type": "Point", "coordinates": [ 32506969.203761655837297, 6004852.612625982612371 ] } },
{ "type": "Feature", "properties": { "id": 66, "addr:city": null, "addr:country": null, "addr:housenumber": null, "addr:postcode": null, "addr:street": null, "building": "commercial", "name": null, "opening_hours": null, "shop": null, "toilets:wheelchair": null, "website": null, "wheelchair": null, "craft": null, "fixme": null, "P_heat_max": 41, "lat": 6004918.2173551591, "lon": 32506698.879691444, "id_full": "consumers-66", "type": "H" }, "geometry": { "type": "Point", "coordinates": [ 32506698.879691444337368, 6004918.217355159111321 ] } },
{ "type": "Feature", "properties": { "id": 67, "addr:city": "Heide", "addr:country": null, "addr:housenumber": "22", "addr:postcode": "25746", "addr:street": "Neue Heimat", "building": "house", "name": null, "opening_hours": null, "shop": null, "toilets:wheelchair": null, "website": null, "wheelchair": null, "craft": null, "fixme": null, "P_heat_max": 49, "lat": 6004944.8971530152, "lon": 32506922.212192755, "id_full": "consumers-67", "type": "H" }, "geometry": { "type": "Point", "coordinates": [ 32506922.212192755192518, 6004944.897153015248477 ] } },
{ "type": "Feature", "properties": { "id": 68, "addr:city": "Heide", "addr:country": null, "addr:housenumber": "26", "addr:postcode": "25746", "addr:street": "Rüsdorfer Straße", "building": "house", "name": null, "opening_hours": null, "shop": null, "toilets:wheelchair": null, "website": null, "wheelchair": null, "craft": null, "fixme": null, "P_heat_max": 33, "lat": 6004941.1577597568, "lon": 32506809.732562188, "id_full": "consumers-68", "type": "H" }, "geometry": { "type": "Point", "coordinates": [ 32506809.732562188059092, 6004941.157759756781161 ] } },
{ "type": "Feature", "properties": { "id": 69, "addr:city": "Heide", "addr:country": null, "addr:housenumber": "98", "addr:postcode": "25746", "addr:street": "Berliner Straße", "building": "detached", "name": null, "opening_hours": null, "shop": null, "toilets:wheelchair": null, "website": null, "wheelchair": null, "craft": null, "fixme": null, "P_heat_max": 41, "lat": 6004673.4424787452, "lon": 32506802.083184846, "id_full": "consumers-69", "type": "H" }, "geometry": { "type": "Point", "coordinates": [ 32506802.083184845745564, 6004673.442478745244443 ] } },
{ "type": "Feature", "properties": { "id": 70, "addr:city": "Heide", "addr:country": null, "addr:housenumber": "12", "addr:postcode": "25746", "addr:street": "Rüsdorfer Straße", "building": "house", "name": null, "opening_hours": null, "shop": null, "toilets:wheelchair": null, "website": null, "wheelchair": null, "craft": null, "fixme": null, "P_heat_max": 30, "lat": 6004998.7397155529, "lon": 32506705.227665149, "id_full": "consumers-70", "type": "H" }, "geometry": { "type": "Point", "coordinates": [ 32506705.227665148675442, 6004998.739715552888811 ] } },
{ "type": "Feature", "properties": { "id": 71, "addr:city": "Heide", "addr:country": null, "addr:housenumber": "70", "addr:postcode": "25746", "addr:street": "Berliner Straße", "building": "commercial", "name": null, "opening_hours": null, "shop": null, "toilets:wheelchair": null, "website": null, "wheelchair": null, "craft": null, "fixme": null, "P_heat_max": 38, "lat": 6004755.3701343266, "lon": 32507026.970478341, "id_full": "consumers-71", "type": "H" }, "geometry": { "type": "Point", "coordinates": [ 32507026.970478340983391, 6004755.370134326629341 ] } },
{ "type": "Feature", "properties": { "id": 72, "addr:city": "Heide", "addr:country": null, "addr:housenumber": "64", "addr:postcode": "25746", "addr:street": "Rüsdorfer Straße", "building": "commercial", "name": null, "opening_hours": null, "shop": null, "toilets:wheelchair": null, "website": null, "wheelchair": null, "craft": null, "fixme": null, "P_heat_max": 17, "lat": 6004780.3847515341, "lon": 32507021.442586396, "id_full": "consumers-72", "type": "H" }, "geometry": { "type": "Point", "coordinates": [ 32507021.442586395889521, 6004780.384751534089446 ] } },
{ "type": "Feature", "properties": { "id": 73, "addr:city": "Heide", "addr:country": null, "addr:housenumber": "85", "addr:postcode": "25746", "addr:street": "Rüsdorfer Straße", "building": "detached", "name": null, "opening_hours": null, "shop": null, "toilets:wheelchair": null, "website": null, "wheelchair": null, "craft": null, "fixme": null, "P_heat_max": 43, "lat": 6004833.0207618298, "lon": 32507013.935856551, "id_full": "consumers-73", "type": "H" }, "geometry": { "type": "Point", "coordinates": [ 32507013.935856550931931, 6004833.020761829800904 ] } },
{ "type": "Feature", "properties": { "id": 74, "addr:city": "Heide", "addr:country": null, "addr:housenumber": "79", "addr:postcode": "25746", "addr:street": "Rüsdorfer Straße", "building": "house", "name": null, "opening_hours": null, "shop": null, "toilets:wheelchair": null, "website": null, "wheelchair": null, "craft": null, "fixme": null, "P_heat_max": 37, "lat": 6004860.1978684654, "lon": 32506960.185587, "id_full": "consumers-74", "type": "H" }, "geometry": { "type": "Point", "coordinates": [ 32506960.185587, 6004860.197868465445936 ] } },
{ "type": "Feature", "properties": { "id": 75, "addr:city": "Heide", "addr:country": null, "addr:housenumber": "92", "addr:postcode": "25746", "addr:street": "Berliner Straße", "building": "house", "name": null, "opening_hours": null, "shop": null, "toilets:wheelchair": null, "website": null, "wheelchair": null, "craft": null, "fixme": null, "P_heat_max": 12, "lat": 6004683.5310968822, "lon": 32506839.303071409, "id_full": "consumers-75", "type": "H" }, "geometry": { "type": "Point", "coordinates": [ 32506839.303071409463882, 6004683.53109688218683 ] } },
{ "type": "Feature", "properties": { "id": 76, "addr:city": "Heide", "addr:country": null, "addr:housenumber": "59", "addr:postcode": "25746", "addr:street": "Rüsdorfer Straße", "building": "house", "name": null, "opening_hours": null, "shop": null, "toilets:wheelchair": null, "website": null, "wheelchair": null, "craft": null, "fixme": null, "P_heat_max": 15, "lat": 6004948.3785943724, "lon": 32506840.081979629, "id_full": "consumers-76", "type": "H" }, "geometry": { "type": "Point", "coordinates": [ 32506840.081979628652334, 6004948.378594372421503 ] } },
{ "type": "Feature", "properties": { "id": 77, "addr:city": "Heide", "addr:country": null, "addr:housenumber": "45", "addr:postcode": "25746", "addr:street": "Rüsdorfer Straße", "building": "house", "name": null, "opening_hours": null, "shop": null, "toilets:wheelchair": null, "website": null, "wheelchair": null, "craft": null, "fixme": null, "P_heat_max": 27, "lat": 6005001.0415692255, "lon": 32506765.211176943, "id_full": "consumers-77", "type": "H" }, "geometry": { "type": "Point", "coordinates": [ 32506765.211176943033934, 6005001.041569225490093 ] } },
{ "type": "Feature", "properties": { "id": 78, "addr:city": "Heide", "addr:country": null, "addr:housenumber": "3", "addr:postcode": "25746", "addr:street": "Stettiner Straße", "building": "house", "name": null, "opening_hours": null, "shop": null, "toilets:wheelchair": null, "website": null, "wheelchair": null, "craft": null, "fixme": null, "P_heat_max": 44, "lat": 6005031.2216832787, "lon": 32506767.961118907, "id_full": "consumers-78", "type": "H" }, "geometry": { "type": "Point", "coordinates": [ 32506767.961118906736374, 6005031.221683278679848 ] } },
{ "type": "Feature", "properties": { "id": 79, "addr:city": "Heide", "addr:country": null, "addr:housenumber": "73", "addr:postcode": "25746", "addr:street": "Rüsdorfer Straße", "building": "residential", "name": null, "opening_hours": null, "shop": null, "toilets:wheelchair": null, "website": null, "wheelchair": null, "craft": null, "fixme": null, "P_heat_max": 48, "lat": 6004885.0032165097, "lon": 32506925.711909156, "id_full": "consumers-79", "type": "H" }, "geometry": { "type": "Point", "coordinates": [ 32506925.711909156292677, 6004885.003216509707272 ] } },
{ "type": "Feature", "properties": { "id": 80, "addr:city": "Heide", "addr:country": null, "addr:housenumber": "78", "addr:postcode": "25746", "addr:street": "Berliner Straße", "building": "house", "name": null, "opening_hours": null, "shop": null, "toilets:wheelchair": null, "website": null, "wheelchair": null, "craft": null, "fixme": null, "P_heat_max": 29, "lat": 6004712.9377350034, "lon": 32506942.83220705, "id_full": "consumers-80", "type": "H" }, "geometry": { "type": "Point", "coordinates": [ 32506942.832207050174475, 6004712.93773500341922 ] } },
{ "type": "Feature", "properties": { "id": 81, "addr:city": "Heide", "addr:country": null, "addr:housenumber": "49", "addr:postcode": "25746", "addr:street": "Rüsdorfer Straße", "building": "house", "name": null, "opening_hours": null, "shop": null, "toilets:wheelchair": null, "website": null, "wheelchair": null, "craft": null, "fixme": null, "P_heat_max": 43, "lat": 6004989.4165181965, "lon": 32506785.013545528, "id_full": "consumers-81", "type": "H" }, "geometry": { "type": "Point", "coordinates": [ 32506785.013545528054237, 6004989.416518196463585 ] } },
{ "type": "Feature", "properties": { "id": 82, "addr:city": "Heide", "addr:country": null, "addr:housenumber": "35", "addr:postcode": "25746", "addr:street": "Rüsdorfer Straße", "building": "house", "name": null, "opening_hours": null, "shop": null, "toilets:wheelchair": null, "website": null, "wheelchair": null, "craft": null, "fixme": null, "P_heat_max": 25, "lat": 6005021.5204845667, "lon": 32506714.735420961, "id_full": "consumers-82", "type": "H" }, "geometry": { "type": "Point", "coordinates": [ 32506714.73542096093297, 6005021.520484566688538 ] } },
{ "type": "Feature", "properties": { "id": 83, "addr:city": "Heide", "addr:country": null, "addr:housenumber": "67", "addr:postcode": "25746", "addr:street": "Rüsdorfer Straße", "building": "residential", "name": null, "opening_hours": null, "shop": null, "toilets:wheelchair": null, "website": null, "wheelchair": null, "craft": null, "fixme": null, "P_heat_max": 34, "lat": 6004918.728310721, "lon": 32506879.134264857, "id_full": "consumers-83", "type": "H" }, "geometry": { "type": "Point", "coordinates": [ 32506879.13426485657692, 6004918.728310720995069 ] } },
{ "type": "Feature", "properties": { "id": 84, "addr:city": "Heide", "addr:country": null, "addr:housenumber": "20", "addr:postcode": "25746", "addr:street": "Rüsdorfer Straße", "building": "detached", "name": null, "opening_hours": null, "shop": null, "toilets:wheelchair": null, "website": null, "wheelchair": null, "craft": null, "fixme": null, "P_heat_max": 39, "lat": 6004964.5058532031, "lon": 32506780.074384347, "id_full": "consumers-84", "type": "H" }, "geometry": { "type": "Point", "coordinates": [ 32506780.074384346604347, 6004964.505853203125298 ] } },
{ "type": "Feature", "properties": { "id": 85, "addr:city": "Heide", "addr:country": null, "addr:housenumber": "8", "addr:postcode": "25746", "addr:street": "Rüsdorfer Straße", "building": "commercial", "name": null, "opening_hours": null, "shop": null, "toilets:wheelchair": null, "website": null, "wheelchair": null, "craft": null, "fixme": null, "P_heat_max": 26, "lat": 6004960.5605987525, "lon": 32506702.267492007, "id_full": "consumers-85", "type": "H" }, "geometry": { "type": "Point", "coordinates": [ 32506702.26749200746417, 6004960.560598752461374 ] } },
{ "type": "Feature", "properties": { "id": 86, "addr:city": "Heide", "addr:country": null, "addr:housenumber": "31", "addr:postcode": "25746", "addr:street": "Rüsdorfer Straße", "building": "residential", "name": null, "opening_hours": null, "shop": null, "toilets:wheelchair": null, "website": null, "wheelchair": null, "craft": null, "fixme": null, "P_heat_max": 42, "lat": 6005029.7369962903, "lon": 32506693.432355523, "id_full": "consumers-86", "type": "H" }, "geometry": { "type": "Point", "coordinates": [ 32506693.432355523109436, 6005029.736996290273964 ] } },
{ "type": "Feature", "properties": { "id": 87, "addr:city": "Heide", "addr:country": null, "addr:housenumber": "65", "addr:postcode": "25746", "addr:street": "Rüsdorfer Straße", "building": "detached", "name": null, "opening_hours": null, "shop": null, "toilets:wheelchair": null, "website": null, "wheelchair": null, "craft": null, "fixme": null, "P_heat_max": 40, "lat": 6004927.2545030387, "lon": 32506868.723374065, "id_full": "consumers-87", "type": "H" }, "geometry": { "type": "Point", "coordinates": [ 32506868.72337406501174, 6004927.254503038711846 ] } },
{ "type": "Feature", "properties": { "id": 88, "addr:city": "Heide", "addr:country": null, "addr:housenumber": "1", "addr:postcode": "25746", "addr:street": "Stettiner Straße", "building": "house", "name": null, "opening_hours": null, "shop": null, "toilets:wheelchair": null, "website": null, "wheelchair": null, "craft": null, "fixme": null, "P_heat_max": 29, "lat": 6005027.5448837001, "lon": 32506755.536638945, "id_full": "consumers-88", "type": "H" }, "geometry": { "type": "Point", "coordinates": [ 32506755.53663894534111, 6005027.544883700087667 ] } },
{ "type": "Feature", "properties": { "id": 89, "addr:city": "Heide", "addr:country": null, "addr:housenumber": "47", "addr:postcode": "25746", "addr:street": "Rüsdorfer Straße", "building": "house", "name": null, "opening_hours": null, "shop": null, "toilets:wheelchair": null, "website": null, "wheelchair": null, "craft": null, "fixme": null, "P_heat_max": 38, "lat": 6004993.7782234615, "lon": 32506773.220998388, "id_full": "consumers-89", "type": "H" }, "geometry": { "type": "Point", "coordinates": [ 32506773.220998387783766, 6004993.778223461471498 ] } },
{ "type": "Feature", "properties": { "id": 90, "addr:city": "Heide", "addr:country": null, "addr:housenumber": "61", "addr:postcode": "25746", "addr:street": "Rüsdorfer Straße", "building": "house", "name": null, "opening_hours": null, "shop": null, "toilets:wheelchair": null, "website": null, "wheelchair": null, "craft": null, "fixme": null, "P_heat_max": 46, "lat": 6004943.9131416231, "lon": 32506848.507188026, "id_full": "consumers-90", "type": "H" }, "geometry": { "type": "Point", "coordinates": [ 32506848.507188025861979, 6004943.913141623139381 ] } },
{ "type": "Feature", "properties": { "id": 91, "addr:city": "Heide", "addr:country": null, "addr:housenumber": "83", "addr:postcode": "25746", "addr:street": "Rüsdorfer Straße", "building": "commercial", "name": null, "opening_hours": null, "shop": null, "toilets:wheelchair": null, "website": null, "wheelchair": null, "craft": null, "fixme": null, "P_heat_max": 45, "lat": 6004842.7832632717, "lon": 32506995.652057737, "id_full": "consumers-91", "type": "H" }, "geometry": { "type": "Point", "coordinates": [ 32506995.652057737112045, 6004842.783263271674514 ] } },
{ "type": "Feature", "properties": { "id": 92, "addr:city": "Heide", "addr:country": null, "addr:housenumber": "75", "addr:postcode": "25746", "addr:street": "Rüsdorfer Straße", "building": "detached", "name": null, "opening_hours": null, "shop": null, "toilets:wheelchair": null, "website": null, "wheelchair": null, "craft": null, "fixme": null, "P_heat_max": 32, "lat": 6004875.8126192996, "lon": 32506938.311188925, "id_full": "consumers-92", "type": "H" }, "geometry": { "type": "Point", "coordinates": [ 32506938.31118892505765, 6004875.812619299627841 ] } },
{ "type": "Feature", "properties": { "id": 93, "addr:city": "Heide", "addr:country": null, "addr:housenumber": "77", "addr:postcode": "25746", "addr:street": "Rüsdorfer Straße", "building": "house", "name": null, "opening_hours": null, "shop": null, "toilets:wheelchair": null, "website": null, "wheelchair": null, "craft": null, "fixme": null, "P_heat_max": 16, "lat": 6004870.7620361941, "lon": 32506945.479837418, "id_full": "consumers-93", "type": "H" }, "geometry": { "type": "Point", "coordinates": [ 32506945.479837417602539, 6004870.762036194093525 ] } },
{ "type": "Feature", "properties": { "id": 94, "addr:city": "Heide", "addr:country": "DE", "addr:housenumber": "23", "addr:postcode": "25746", "addr:street": "Rüsdorfer Straße", "building": "commercial", "name": null, "opening_hours": null, "shop": null, "toilets:wheelchair": null, "website": null, "wheelchair": null, "craft": null, "fixme": null, "P_heat_max": 33, "lat": 6005074.0846991772, "lon": 32506669.221525811, "id_full": "consumers-94", "type": "H" }, "geometry": { "type": "Point", "coordinates": [ 32506669.221525810658932, 6005074.084699177183211 ] } },
{ "type": "Feature", "properties": { "id": 95, "addr:city": "Heide", "addr:country": null, "addr:housenumber": "69", "addr:postcode": "25746", "addr:street": "Rüsdorfer Straße", "building": "detached", "name": null, "opening_hours": null, "shop": null, "toilets:wheelchair": null, "website": null, "wheelchair": null, "craft": null, "fixme": null, "P_heat_max": 34, "lat": 6004909.8316204697, "lon": 32506895.810843542, "id_full": "consumers-95", "type": "H" }, "geometry": { "type": "Point", "coordinates": [ 32506895.810843542218208, 6004909.831620469689369 ] } },
{ "type": "Feature", "properties": { "id": 96, "addr:city": "Heide", "addr:country": null, "addr:housenumber": "74", "addr:postcode": "25746", "addr:street": "Berliner Straße", "building": "commercial", "name": "TC-Hydraulik", "opening_hours": null, "shop": null, "toilets:wheelchair": null, "website": "https://www.tc-hydraulik.de/", "wheelchair": null, "craft": null, "fixme": null, "P_heat_max": 34, "lat": 6004753.4929851666, "lon": 32506973.329735886, "id_full": "consumers-96", "type": "H" }, "geometry": { "type": "Point", "coordinates": [ 32506973.329735886305571, 6004753.492985166609287 ] } },
{ "type": "Feature", "properties": { "id": 97, "addr:city": "Heide", "addr:country": null, "addr:housenumber": "36", "addr:postcode": "25746", "addr:street": "Rüsdorfer Straße", "building": "house", "name": null, "opening_hours": null, "shop": null, "toilets:wheelchair": null, "website": null, "wheelchair": null, "craft": null, "fixme": null, "P_heat_max": 38, "lat": 6004909.9075214053, "lon": 32506854.906595927, "id_full": "consumers-97", "type": "H" }, "geometry": { "type": "Point", "coordinates": [ 32506854.906595926731825, 6004909.907521405257285 ] } },
{ "type": "Feature", "properties": { "id": 98, "addr:city": "Heide", "addr:country": null, "addr:housenumber": "46", "addr:postcode": "25746", "addr:street": "Rüsdorfer Straße", "building": "house", "name": null, "opening_hours": null, "shop": null, "toilets:wheelchair": null, "website": null, "wheelchair": null, "craft": null, "fixme": null, "P_heat_max": 33, "lat": 6004869.6315114992, "lon": 32506910.150826644, "id_full": "consumers-98", "type": "H" }, "geometry": { "type": "Point", "coordinates": [ 32506910.150826644152403, 6004869.631511499173939 ] } },
{ "type": "Feature", "properties": { "id": 99, "addr:city": "Heide", "addr:country": null, "addr:housenumber": "42", "addr:postcode": "25746", "addr:street": "Rüsdorfer Straße", "building": "house", "name": null, "opening_hours": null, "shop": null, "toilets:wheelchair": null, "website": null, "wheelchair": null, "craft": null, "fixme": null, "P_heat_max": 20, "lat": 6004890.3840006869, "lon": 32506879.766101882, "id_full": "consumers-99", "type": "H" }, "geometry": { "type": "Point", "coordinates": [ 32506879.766101881861687, 6004890.38400068692863 ] } },
{ "type": "Feature", "properties": { "id": 100, "addr:city": "Heide", "addr:country": null, "addr:housenumber": "44", "addr:postcode": "25746", "addr:street": "Rüsdorfer Straße", "building": "detached", "name": null, "opening_hours": null, "shop": null, "toilets:wheelchair": null, "website": null, "wheelchair": null, "craft": null, "fixme": null, "P_heat_max": 31, "lat": 6004879.2373334914, "lon": 32506894.072427262, "id_full": "consumers-100", "type": "H" }, "geometry": { "type": "Point", "coordinates": [ 32506894.07242726162076, 6004879.237333491444588 ] } },
{ "type": "Feature", "properties": { "id": 101, "addr:city": "Heide", "addr:country": null, "addr:housenumber": "34", "addr:postcode": "25746", "addr:street": "Rüsdorfer Straße", "building": "house", "name": null, "opening_hours": null, "shop": null, "toilets:wheelchair": null, "website": null, "wheelchair": null, "craft": null, "fixme": null, "P_heat_max": 38, "lat": 6004914.9350390593, "lon": 32506845.747697491, "id_full": "consumers-101", "type": "H" }, "geometry": { "type": "Point", "coordinates": [ 32506845.747697491198778, 6004914.935039059258997 ] } },
{ "type": "Feature", "properties": { "id": 102, "addr:city": "Heide", "addr:country": null, "addr:housenumber": "32", "addr:postcode": "25746", "addr:street": "Rüsdorfer Straße", "building": "detached", "name": null, "opening_hours": null, "shop": null, "toilets:wheelchair": null, "website": null, "wheelchair": null, "craft": null, "fixme": null, "P_heat_max": 49, "lat": 6004924.4554928178, "lon": 32506835.314610954, "id_full": "consumers-102", "type": "H" }, "geometry": { "type": "Point", "coordinates": [ 32506835.314610954374075, 6004924.455492817796767 ] } },
{ "type": "Feature", "properties": { "id": 103, "addr:city": "Heide", "addr:country": null, "addr:housenumber": "30", "addr:postcode": "25746", "addr:street": "Rüsdorfer Straße", "building": "semidetached_house", "name": null, "opening_hours": null, "shop": null, "toilets:wheelchair": null, "website": null, "wheelchair": null, "craft": null, "fixme": null, "P_heat_max": 16, "lat": 6004931.0617589271, "lon": 32506824.472275782, "id_full": "consumers-103", "type": "H" }, "geometry": { "type": "Point", "coordinates": [ 32506824.472275782376528, 6004931.061758927069604 ] } },
{ "type": "Feature", "properties": { "id": 104, "addr:city": "Heide", "addr:country": "DE", "addr:housenumber": "17", "addr:postcode": "25746", "addr:street": "Hans-Böckler-Straße", "building": "apartments", "name": null, "opening_hours": null, "shop": null, "toilets:wheelchair": null, "website": null, "wheelchair": null, "craft": null, "fixme": null, "P_heat_max": 36, "lat": 6005174.3473145496, "lon": 32506923.191534139, "id_full": "consumers-104", "type": "H" }, "geometry": { "type": "Point", "coordinates": [ 32506923.191534139215946, 6005174.347314549610019 ] } },
{ "type": "Feature", "properties": { "id": 105, "addr:city": "Heide", "addr:country": "DE", "addr:housenumber": "18", "addr:postcode": "25746", "addr:street": "Hans-Böckler-Straße", "building": "apartments", "name": null, "opening_hours": null, "shop": null, "toilets:wheelchair": null, "website": null, "wheelchair": null, "craft": null, "fixme": null, "P_heat_max": 48, "lat": 6005127.5398804722, "lon": 32506881.192307916, "id_full": "consumers-105", "type": "H" }, "geometry": { "type": "Point", "coordinates": [ 32506881.192307915538549, 6005127.539880472235382 ] } },
{ "type": "Feature", "properties": { "id": 106, "addr:city": "Heide", "addr:country": "DE", "addr:housenumber": "22", "addr:postcode": "25746", "addr:street": "Hans-Böckler-Straße", "building": "apartments", "name": null, "opening_hours": null, "shop": null, "toilets:wheelchair": null, "website": null, "wheelchair": null, "craft": null, "fixme": null, "P_heat_max": 19, "lat": 6005086.207022367, "lon": 32506899.35027615, "id_full": "consumers-106", "type": "H" }, "geometry": { "type": "Point", "coordinates": [ 32506899.350276149809361, 6005086.207022367045283 ] } },
{ "type": "Feature", "properties": { "id": 107, "addr:city": "Heide", "addr:country": null, "addr:housenumber": "72", "addr:postcode": "25746", "addr:street": "Berliner Straße", "building": "detached", "name": null, "opening_hours": null, "shop": null, "toilets:wheelchair": null, "website": null, "wheelchair": null, "craft": null, "fixme": null, "P_heat_max": 47, "lat": 6004727.2611511331, "lon": 32506994.143456344, "id_full": "consumers-107", "type": "H" }, "geometry": { "type": "Point", "coordinates": [ 32506994.143456343561411, 6004727.261151133105159 ] } },
{ "type": "Feature", "properties": { "id": 108, "addr:city": "Heide", "addr:country": null, "addr:housenumber": "13", "addr:postcode": "25746", "addr:street": "Stettiner Straße", "building": "apartments", "name": null, "opening_hours": null, "shop": null, "toilets:wheelchair": null, "website": null, "wheelchair": null, "craft": null, "fixme": null, "P_heat_max": 21, "lat": 6005046.9658822007, "lon": 32506862.415233277, "id_full": "consumers-108", "type": "H" }, "geometry": { "type": "Point", "coordinates": [ 32506862.41523327678442, 6005046.965882200747728 ] } },
{ "type": "Feature", "properties": { "id": 109, "addr:city": "Heide", "addr:country": null, "addr:housenumber": "17", "addr:postcode": "25746", "addr:street": "Stettiner Straße", "building": "apartments", "name": null, "opening_hours": null, "shop": null, "toilets:wheelchair": null, "website": null, "wheelchair": null, "craft": null, "fixme": null, "P_heat_max": 33, "lat": 6005066.3100751257, "lon": 32506975.025434896, "id_full": "consumers-109", "type": "H" }, "geometry": { "type": "Point", "coordinates": [ 32506975.025434896349907, 6005066.310075125657022 ] } },
{ "type": "Feature", "properties": { "id": 110, "addr:city": "Heide", "addr:country": null, "addr:housenumber": "9", "addr:postcode": "25746", "addr:street": "Stettiner Straße", "building": "apartments", "name": null, "opening_hours": null, "shop": null, "toilets:wheelchair": null, "website": null, "wheelchair": null, "craft": null, "fixme": null, "P_heat_max": 37, "lat": 6005044.4395875167, "lon": 32506836.588345636, "id_full": "consumers-110", "type": "H" }, "geometry": { "type": "Point", "coordinates": [ 32506836.588345635682344, 6005044.439587516710162 ] } },
{ "type": "Feature", "properties": { "id": 111, "addr:city": "Heide", "addr:country": null, "addr:housenumber": "10", "addr:postcode": "25746", "addr:street": "Im Redder", "building": "apartments", "name": null, "opening_hours": null, "shop": null, "toilets:wheelchair": null, "website": null, "wheelchair": null, "craft": null, "fixme": null, "P_heat_max": 12, "lat": 6005088.549216033, "lon": 32506830.142781686, "id_full": "consumers-111", "type": "H" }, "geometry": { "type": "Point", "coordinates": [ 32506830.142781686037779, 6005088.549216032959521 ] } },
{ "type": "Feature", "properties": { "id": 112, "addr:city": "Heide", "addr:country": null, "addr:housenumber": "13", "addr:postcode": "25746", "addr:street": "Im Redder", "building": "apartments", "name": null, "opening_hours": null, "shop": null, "toilets:wheelchair": null, "website": null, "wheelchair": null, "craft": null, "fixme": null, "P_heat_max": 26, "lat": 6005110.2026483128, "lon": 32506806.709942408, "id_full": "consumers-112", "type": "H" }, "geometry": { "type": "Point", "coordinates": [ 32506806.709942407906055, 6005110.202648312784731 ] } },
{ "type": "Feature", "properties": { "id": 113, "addr:city": "Heide", "addr:country": null, "addr:housenumber": "14", "addr:postcode": "25746", "addr:street": "Im Redder", "building": "apartments", "name": null, "opening_hours": null, "shop": null, "toilets:wheelchair": null, "website": null, "wheelchair": null, "craft": null, "fixme": null, "P_heat_max": 13, "lat": 6005113.4016366536, "lon": 32506831.311364524, "id_full": "consumers-113", "type": "H" }, "geometry": { "type": "Point", "coordinates": [ 32506831.311364524066448, 6005113.401636653579772 ] } },
{ "type": "Feature", "properties": { "id": 114, "addr:city": "Heide", "addr:country": null, "addr:housenumber": "17", "addr:postcode": "25746", "addr:street": "Im Redder", "building": "apartments", "name": null, "opening_hours": null, "shop": null, "toilets:wheelchair": null, "website": null, "wheelchair": null, "craft": null, "fixme": null, "P_heat_max": 45, "lat": 6005131.7377835736, "lon": 32506804.718359739, "id_full": "consumers-114", "type": "H" }, "geometry": { "type": "Point", "coordinates": [ 32506804.718359738588333, 6005131.737783573567867 ] } },
{ "type": "Feature", "properties": { "id": 115, "addr:city": "Heide", "addr:country": null, "addr:housenumber": "18", "addr:postcode": "25746", "addr:street": "Im Redder", "building": "apartments", "name": null, "opening_hours": null, "shop": null, "toilets:wheelchair": null, "website": null, "wheelchair": null, "craft": null, "fixme": null, "P_heat_max": 36, "lat": 6005134.7096251054, "lon": 32506829.517301597, "id_full": "consumers-115", "type": "H" }, "geometry": { "type": "Point", "coordinates": [ 32506829.517301596701145, 6005134.709625105373561 ] } },
{ "type": "Feature", "properties": { "id": 116, "addr:city": "Heide", "addr:country": null, "addr:housenumber": "21", "addr:postcode": "25746", "addr:street": "Im Redder", "building": "apartments", "name": null, "opening_hours": null, "shop": null, "toilets:wheelchair": null, "website": null, "wheelchair": null, "craft": null, "fixme": null, "P_heat_max": 24, "lat": 6005156.1239074264, "lon": 32506804.629356716, "id_full": "consumers-116", "type": "H" }, "geometry": { "type": "Point", "coordinates": [ 32506804.62935671582818, 6005156.12390742637217 ] } },
{ "type": "Feature", "properties": { "id": 117, "addr:city": "Heide", "addr:country": null, "addr:housenumber": "22", "addr:postcode": "25746", "addr:street": "Im Redder", "building": "apartments", "name": null, "opening_hours": null, "shop": null, "toilets:wheelchair": null, "website": null, "wheelchair": null, "craft": null, "fixme": null, "P_heat_max": 23, "lat": 6005157.6771208365, "lon": 32506826.114318337, "id_full": "consumers-117", "type": "H" }, "geometry": { "type": "Point", "coordinates": [ 32506826.114318337291479, 6005157.67712083645165 ] } },
{ "type": "Feature", "properties": { "id": 118, "addr:city": "Heide", "addr:country": null, "addr:housenumber": "5", "addr:postcode": "25746", "addr:street": "Im Redder", "building": "apartments", "name": null, "opening_hours": null, "shop": null, "toilets:wheelchair": null, "website": null, "wheelchair": null, "craft": null, "fixme": null, "P_heat_max": 15, "lat": 6005064.420167109, "lon": 32506810.402725525, "id_full": "consumers-118", "type": "H" }, "geometry": { "type": "Point", "coordinates": [ 32506810.402725525200367, 6005064.420167108997703 ] } },
{ "type": "Feature", "properties": { "id": 119, "addr:city": "Heide", "addr:country": null, "addr:housenumber": "6", "addr:postcode": "25746", "addr:street": "Im Redder", "building": "apartments", "name": null, "opening_hours": null, "shop": null, "toilets:wheelchair": null, "website": null, "wheelchair": null, "craft": null, "fixme": null, "P_heat_max": 26, "lat": 6005065.9573120773, "lon": 32506832.289393526, "id_full": "consumers-119", "type": "H" }, "geometry": { "type": "Point", "coordinates": [ 32506832.289393525570631, 6005065.957312077283859 ] } },
{ "type": "Feature", "properties": { "id": 120, "addr:city": "Heide", "addr:country": null, "addr:housenumber": "9", "addr:postcode": "25746", "addr:street": "Im Redder", "building": "apartments", "name": null, "opening_hours": null, "shop": null, "toilets:wheelchair": null, "website": null, "wheelchair": null, "craft": null, "fixme": null, "P_heat_max": 37, "lat": 6005086.7101640236, "lon": 32506809.311211679, "id_full": "consumers-120", "type": "H" }, "geometry": { "type": "Point", "coordinates": [ 32506809.311211679130793, 6005086.710164023563266 ] } },
{ "type": "Feature", "properties": { "id": 121, "addr:city": "Heide", "addr:country": null, "addr:housenumber": "10", "addr:postcode": "25746", "addr:street": "Neue Heimat", "building": "house", "name": null, "opening_hours": null, "shop": null, "toilets:wheelchair": null, "website": null, "wheelchair": null, "craft": null, "fixme": null, "P_heat_max": 16, "lat": 6004978.6460267892, "lon": 32506901.808295634, "id_full": "consumers-121", "type": "H" }, "geometry": { "type": "Point", "coordinates": [ 32506901.808295633643866, 6004978.646026789210737 ] } },
{ "type": "Feature", "properties": { "id": 122, "addr:city": "Heide", "addr:country": null, "addr:housenumber": "11", "addr:postcode": "25746", "addr:street": "Neue Heimat", "building": "house", "name": null, "opening_hours": null, "shop": null, "toilets:wheelchair": null, "website": null, "wheelchair": null, "craft": null, "fixme": null, "P_heat_max": 31, "lat": 6004974.6427852949, "lon": 32506932.119569965, "id_full": "consumers-122", "type": "H" }, "geometry": { "type": "Point", "coordinates": [ 32506932.119569964706898, 6004974.642785294912755 ] } },
{ "type": "Feature", "properties": { "id": 123, "addr:city": "Heide", "addr:country": null, "addr:housenumber": "12", "addr:postcode": "25746", "addr:street": "Neue Heimat", "building": "house", "name": null, "opening_hours": null, "shop": null, "toilets:wheelchair": null, "website": null, "wheelchair": null, "craft": null, "fixme": null, "P_heat_max": 18, "lat": 6004974.0920868777, "lon": 32506904.584658977, "id_full": "consumers-123", "type": "H" }, "geometry": { "type": "Point", "coordinates": [ 32506904.584658976644278, 6004974.092086877673864 ] } },
{ "type": "Feature", "properties": { "id": 124, "addr:city": "Heide", "addr:country": null, "addr:housenumber": "13", "addr:postcode": "25746", "addr:street": "Neue Heimat", "building": "house", "name": null, "opening_hours": null, "shop": null, "toilets:wheelchair": null, "website": null, "wheelchair": null, "craft": null, "fixme": null, "P_heat_max": 24, "lat": 6004969.6070375647, "lon": 32506933.47070761, "id_full": "consumers-124", "type": "H" }, "geometry": { "type": "Point", "coordinates": [ 32506933.470707610249519, 6004969.607037564739585 ] } },
{ "type": "Feature", "properties": { "id": 125, "addr:city": "Heide", "addr:country": null, "addr:housenumber": "16", "addr:postcode": "25746", "addr:street": "Neue Heimat", "building": "house", "name": null, "opening_hours": null, "shop": null, "toilets:wheelchair": null, "website": null, "wheelchair": null, "craft": null, "fixme": null, "P_heat_max": 39, "lat": 6004958.9032218512, "lon": 32506913.902167611, "id_full": "consumers-125", "type": "H" }, "geometry": { "type": "Point", "coordinates": [ 32506913.902167610824108, 6004958.903221851214767 ] } },
{ "type": "Feature", "properties": { "id": 126, "addr:city": "Heide", "addr:country": null, "addr:housenumber": "17", "addr:postcode": "25746", "addr:street": "Neue Heimat", "building": "house", "name": null, "opening_hours": null, "shop": null, "toilets:wheelchair": null, "website": null, "wheelchair": null, "craft": null, "fixme": null, "P_heat_max": 10, "lat": 6004964.7884946056, "lon": 32506953.863235988, "id_full": "consumers-126", "type": "H" }, "geometry": { "type": "Point", "coordinates": [ 32506953.863235987722874, 6004964.788494605571032 ] } },
{ "type": "Feature", "properties": { "id": 127, "addr:city": "Heide", "addr:country": null, "addr:housenumber": "18", "addr:postcode": "25746", "addr:street": "Neue Heimat", "building": "house", "name": null, "opening_hours": null, "shop": null, "toilets:wheelchair": null, "website": null, "wheelchair": null, "craft": null, "fixme": null, "P_heat_max": 34, "lat": 6004954.2254579682, "lon": 32506916.657145664, "id_full": "consumers-127", "type": "H" }, "geometry": { "type": "Point", "coordinates": [ 32506916.657145664095879, 6004954.225457968190312 ] } },
{ "type": "Feature", "properties": { "id": 128, "addr:city": "Heide", "addr:country": null, "addr:housenumber": "19", "addr:postcode": "25746", "addr:street": "Neue Heimat", "building": "house", "name": null, "opening_hours": null, "shop": null, "toilets:wheelchair": null, "website": null, "wheelchair": null, "craft": null, "fixme": null, "P_heat_max": 10, "lat": 6004965.780332461, "lon": 32506959.145298298, "id_full": "consumers-128", "type": "H" }, "geometry": { "type": "Point", "coordinates": [ 32506959.145298298448324, 6004965.780332460999489 ] } },
{ "type": "Feature", "properties": { "id": 129, "addr:city": "Heide", "addr:country": null, "addr:housenumber": "2", "addr:postcode": "25746", "addr:street": "Neue Heimat", "building": "house", "name": null, "opening_hours": null, "shop": null, "toilets:wheelchair": null, "website": null, "wheelchair": null, "craft": null, "fixme": null, "P_heat_max": 37, "lat": 6005002.4358568806, "lon": 32506885.263785467, "id_full": "consumers-129", "type": "H" }, "geometry": { "type": "Point", "coordinates": [ 32506885.263785466551781, 6005002.435856880620122 ] } },
{ "type": "Feature", "properties": { "id": 130, "addr:city": "Heide", "addr:country": null, "addr:housenumber": "20", "addr:postcode": "25746", "addr:street": "Neue Heimat", "building": "house", "name": null, "opening_hours": null, "shop": null, "toilets:wheelchair": null, "website": null, "wheelchair": null, "craft": null, "fixme": null, "P_heat_max": 19, "lat": 6004949.5491307126, "lon": 32506919.414187755, "id_full": "consumers-130", "type": "H" }, "geometry": { "type": "Point", "coordinates": [ 32506919.414187755435705, 6004949.549130712635815 ] } },
{ "type": "Feature", "properties": { "id": 131, "addr:city": "Heide", "addr:country": null, "addr:housenumber": "21", "addr:postcode": "25746", "addr:street": "Neue Heimat", "building": "house", "name": null, "opening_hours": null, "shop": null, "toilets:wheelchair": null, "website": null, "wheelchair": null, "craft": null, "fixme": null, "P_heat_max": 26, "lat": 6004966.773820038, "lon": 32506964.426920805, "id_full": "consumers-131", "type": "H" }, "geometry": { "type": "Point", "coordinates": [ 32506964.426920805126429, 6004966.773820037953556 ] } },
{ "type": "Feature", "properties": { "id": 132, "addr:city": "Heide", "addr:country": null, "addr:housenumber": "26", "addr:postcode": "25746", "addr:street": "Neue Heimat", "building": "house", "name": null, "opening_hours": null, "shop": null, "toilets:wheelchair": null, "website": null, "wheelchair": null, "craft": null, "fixme": null, "P_heat_max": 29, "lat": 6004939.799233024, "lon": 32506943.249371059, "id_full": "consumers-132", "type": "H" }, "geometry": { "type": "Point", "coordinates": [ 32506943.249371059238911, 6004939.799233024008572 ] } },
{ "type": "Feature", "properties": { "id": 133, "addr:city": "Heide", "addr:country": null, "addr:housenumber": "28", "addr:postcode": "25746", "addr:street": "Neue Heimat", "building": "house", "name": null, "opening_hours": null, "shop": null, "toilets:wheelchair": null, "website": null, "wheelchair": null, "craft": null, "fixme": null, "P_heat_max": 32, "lat": 6004940.7919222889, "lon": 32506948.55897538, "id_full": "consumers-133", "type": "H" }, "geometry": { "type": "Point", "coordinates": [ 32506948.558975379914045, 6004940.791922288946807 ] } },
{ "type": "Feature", "properties": { "id": 134, "addr:city": "Heide", "addr:country": null, "addr:housenumber": "3", "addr:postcode": "25746", "addr:street": "Neue Heimat", "building": "house", "name": null, "opening_hours": null, "shop": null, "toilets:wheelchair": null, "website": null, "wheelchair": null, "craft": null, "fixme": null, "P_heat_max": 43, "lat": 6004999.1079525622, "lon": 32506915.618785091, "id_full": "consumers-134", "type": "H" }, "geometry": { "type": "Point", "coordinates": [ 32506915.618785090744495, 6004999.10795256216079 ] } },
{ "type": "Feature", "properties": { "id": 135, "addr:city": "Heide", "addr:country": null, "addr:housenumber": "30", "addr:postcode": "25746", "addr:street": "Neue Heimat", "building": "house", "name": null, "opening_hours": null, "shop": null, "toilets:wheelchair": null, "website": null, "wheelchair": null, "craft": null, "fixme": null, "P_heat_max": 44, "lat": 6004941.7846176708, "lon": 32506953.868577439, "id_full": "consumers-135", "type": "H" }, "geometry": { "type": "Point", "coordinates": [ 32506953.868577439337969, 6004941.784617670811713 ] } },
{ "type": "Feature", "properties": { "id": 136, "addr:city": "Heide", "addr:country": null, "addr:housenumber": "32", "addr:postcode": "25746", "addr:street": "Neue Heimat", "building": "house", "name": null, "opening_hours": null, "shop": null, "toilets:wheelchair": null, "website": null, "wheelchair": null, "craft": null, "fixme": null, "P_heat_max": 11, "lat": 6004943.7588363402, "lon": 32506964.445381105, "id_full": "consumers-136", "type": "H" }, "geometry": { "type": "Point", "coordinates": [ 32506964.445381104946136, 6004943.758836340159178 ] } },
{ "type": "Feature", "properties": { "id": 137, "addr:city": "Heide", "addr:country": null, "addr:housenumber": "34", "addr:postcode": "25746", "addr:street": "Neue Heimat", "building": "house", "name": null, "opening_hours": null, "shop": null, "toilets:wheelchair": null, "website": null, "wheelchair": null, "craft": null, "fixme": null, "P_heat_max": 23, "lat": 6004944.7014368353, "lon": 32506969.725691035, "id_full": "consumers-137", "type": "H" }, "geometry": { "type": "Point", "coordinates": [ 32506969.7256910353899, 6004944.701436835341156 ] } },
{ "type": "Feature", "properties": { "id": 138, "addr:city": "Heide", "addr:country": null, "addr:housenumber": "36", "addr:postcode": "25746", "addr:street": "Neue Heimat", "building": "house", "name": null, "opening_hours": null, "shop": null, "toilets:wheelchair": null, "website": null, "wheelchair": null, "craft": null, "fixme": null, "P_heat_max": 21, "lat": 6004945.6384801846, "lon": 32506975.006007243, "id_full": "consumers-138", "type": "H" }, "geometry": { "type": "Point", "coordinates": [ 32506975.006007242947817, 6004945.638480184599757 ] } },
{ "type": "Feature", "properties": { "id": 139, "addr:city": "Heide", "addr:country": null, "addr:housenumber": "5", "addr:postcode": "25746", "addr:street": "Neue Heimat", "building": "house", "name": null, "opening_hours": null, "shop": null, "toilets:wheelchair": null, "website": null, "wheelchair": null, "craft": null, "fixme": null, "P_heat_max": 24, "lat": 6004994.5352942692, "lon": 32506918.35142066, "id_full": "consumers-139", "type": "H" }, "geometry": { "type": "Point", "coordinates": [ 32506918.351420659571886, 6004994.53529426921159 ] } },
{ "type": "Feature", "properties": { "id": 140, "addr:city": "Heide", "addr:country": null, "addr:housenumber": "6", "addr:postcode": "25746", "addr:street": "Neue Heimat", "building": "house", "name": null, "opening_hours": null, "shop": null, "toilets:wheelchair": null, "website": null, "wheelchair": null, "craft": null, "fixme": null, "P_heat_max": 45, "lat": 6004994.836294149, "lon": 32506891.986426871, "id_full": "consumers-140", "type": "H" }, "geometry": { "type": "Point", "coordinates": [ 32506891.986426871269941, 6004994.836294149048626 ] } },
{ "type": "Feature", "properties": { "id": 141, "addr:city": "Heide", "addr:country": null, "addr:housenumber": "7", "addr:postcode": "25746", "addr:street": "Neue Heimat", "building": "house", "name": null, "opening_hours": null, "shop": null, "toilets:wheelchair": null, "website": null, "wheelchair": null, "craft": null, "fixme": null, "P_heat_max": 32, "lat": 6004989.9571988843, "lon": 32506921.078184702, "id_full": "consumers-141", "type": "H" }, "geometry": { "type": "Point", "coordinates": [ 32506921.078184701502323, 6004989.95719888433814 ] } },
{ "type": "Feature", "properties": { "id": 142, "addr:city": "Heide", "addr:country": null, "addr:housenumber": "8", "addr:postcode": "25746", "addr:street": "Neue Heimat", "building": "house", "name": null, "opening_hours": null, "shop": null, "toilets:wheelchair": null, "website": null, "wheelchair": null, "craft": null, "fixme": null, "P_heat_max": 21, "lat": 6004983.1926160334, "lon": 32506899.017207444, "id_full": "consumers-142", "type": "H" }, "geometry": { "type": "Point", "coordinates": [ 32506899.017207443714142, 6004983.192616033367813 ] } },
{ "type": "Feature", "properties": { "id": 143, "addr:city": "Heide", "addr:country": null, "addr:housenumber": "9", "addr:postcode": "25746", "addr:street": "Neue Heimat", "building": "house", "name": null, "opening_hours": null, "shop": null, "toilets:wheelchair": null, "website": null, "wheelchair": null, "craft": null, "fixme": null, "P_heat_max": 38, "lat": 6004978.5361703169, "lon": 32506928.226274975, "id_full": "consumers-143", "type": "H" }, "geometry": { "type": "Point", "coordinates": [ 32506928.226274974644184, 6004978.53617031686008 ] } },
{ "type": "Feature", "properties": { "id": 144, "addr:city": null, "addr:country": null, "addr:housenumber": null, "addr:postcode": null, "addr:street": null, "building": "commercial", "name": null, "opening_hours": null, "shop": null, "toilets:wheelchair": null, "website": null, "wheelchair": null, "craft": null, "fixme": null, "P_heat_max": 10, "lat": 6004970.7615029663, "lon": 32506675.289672256, "id_full": "consumers-144", "type": "H" }, "geometry": { "type": "Point", "coordinates": [ 32506675.289672255516052, 6004970.761502966284752 ] } },
{ "type": "Feature", "properties": { "id": 145, "addr:city": "Heide", "addr:country": null, "addr:housenumber": "8b", "addr:postcode": "25746", "addr:street": "Rüsdorfer Straße", "building": "commercial", "name": null, "opening_hours": null, "shop": null, "toilets:wheelchair": null, "website": null, "wheelchair": null, "craft": null, "fixme": null, "P_heat_max": 46, "lat": 6004927.4596800348, "lon": 32506685.417284355, "id_full": "consumers-145", "type": "H" }, "geometry": { "type": "Point", "coordinates": [ 32506685.417284354567528, 6004927.459680034779012 ] } },
{ "type": "Feature", "properties": { "id": 146, "addr:city": "Heide", "addr:country": "DE", "addr:housenumber": "8", "addr:postcode": "25746", "addr:street": "Auguste-Ebeling-Straße", "building": "detached", "name": null, "opening_hours": null, "shop": null, "toilets:wheelchair": null, "website": null, "wheelchair": null, "craft": null, "fixme": null, "P_heat_max": 49, "lat": 6004762.6165426858, "lon": 32506756.074181572, "id_full": "consumers-146", "type": "H" }, "geometry": { "type": "Point", "coordinates": [ 32506756.074181571602821, 6004762.616542685776949 ] } },
{ "type": "Feature", "properties": { "id": 147, "addr:city": "Heide", "addr:country": "DE", "addr:housenumber": "1b", "addr:postcode": "25746", "addr:street": "Auguste-Ebeling-Straße", "building": "house", "name": null, "opening_hours": null, "shop": null, "toilets:wheelchair": null, "website": null, "wheelchair": null, "craft": null, "fixme": null, "P_heat_max": 28, "lat": 6004665.5432580691, "lon": 32506759.306074966, "id_full": "consumers-147", "type": "H" }, "geometry": { "type": "Point", "coordinates": [ 32506759.306074965745211, 6004665.543258069083095 ] } },
{ "type": "Feature", "properties": { "id": 148, "addr:city": "Heide", "addr:country": "DE", "addr:housenumber": "5", "addr:postcode": "25746", "addr:street": "Auguste-Ebeling-Straße", "building": "detached", "name": null, "opening_hours": null, "shop": null, "toilets:wheelchair": null, "website": null, "wheelchair": null, "craft": null, "fixme": null, "P_heat_max": 10, "lat": 6004698.6937393323, "lon": 32506762.631048795, "id_full": "consumers-148", "type": "H" }, "geometry": { "type": "Point", "coordinates": [ 32506762.631048794835806, 6004698.693739332258701 ] } },
{ "type": "Feature", "properties": { "id": 149, "addr:city": "Heide", "addr:country": "DE", "addr:housenumber": "10", "addr:postcode": "25746", "addr:street": "Auguste-Ebeling-Straße", "building": "detached", "name": null, "opening_hours": null, "shop": null, "toilets:wheelchair": null, "website": null, "wheelchair": null, "craft": null, "fixme": null, "P_heat_max": 31, "lat": 6004761.1497047683, "lon": 32506738.659805857, "id_full": "consumers-149", "type": "H" }, "geometry": { "type": "Point", "coordinates": [ 32506738.659805856645107, 6004761.149704768322408 ] } },
{ "type": "Feature", "properties": { "id": 150, "addr:city": "Heide", "addr:country": null, "addr:housenumber": "100", "addr:postcode": "25746", "addr:street": "Berliner Straße", "building": "house", "name": null, "opening_hours": null, "shop": null, "toilets:wheelchair": null, "website": null, "wheelchair": null, "craft": null, "fixme": null, "P_heat_max": 12, "lat": 6004676.5512994817, "lon": 32506788.54180884, "id_full": "consumers-150", "type": "H" }, "geometry": { "type": "Point", "coordinates": [ 32506788.541808839887381, 6004676.551299481652677 ] } },
{ "type": "Feature", "properties": { "id": 151, "addr:city": "Heide", "addr:country": "DE", "addr:housenumber": "1a", "addr:postcode": "25746", "addr:street": "Auguste-Ebeling-Straße", "building": "house", "name": null, "opening_hours": null, "shop": null, "toilets:wheelchair": null, "website": null, "wheelchair": null, "craft": null, "fixme": null, "P_heat_max": 23, "lat": 6004667.4967969265, "lon": 32506765.09116878, "id_full": "consumers-151", "type": "H" }, "geometry": { "type": "Point", "coordinates": [ 32506765.091168779879808, 6004667.496796926483512 ] } },
{ "type": "Feature", "properties": { "id": 152, "addr:city": "Heide", "addr:country": "DE", "addr:housenumber": "1c", "addr:postcode": "25746", "addr:street": "Auguste-Ebeling-Straße", "building": "house", "name": null, "opening_hours": null, "shop": null, "toilets:wheelchair": null, "website": null, "wheelchair": null, "craft": null, "fixme": null, "P_heat_max": 48, "lat": 6004663.6329921409, "lon": 32506753.646940958, "id_full": "consumers-152", "type": "H" }, "geometry": { "type": "Point", "coordinates": [ 32506753.64694095775485, 6004663.632992140948772 ] } },
{ "type": "Feature", "properties": { "id": 153, "addr:city": "Heide", "addr:country": "DE", "addr:housenumber": "1d", "addr:postcode": "25746", "addr:street": "Auguste-Ebeling-Straße", "building": "house", "name": null, "opening_hours": null, "shop": null, "toilets:wheelchair": null, "website": null, "wheelchair": null, "craft": null, "fixme": null, "P_heat_max": 46, "lat": 6004662.5675576301, "lon": 32506747.540288478, "id_full": "consumers-153", "type": "H" }, "geometry": { "type": "Point", "coordinates": [ 32506747.540288478136063, 6004662.567557630129158 ] } },
{ "type": "Feature", "properties": { "id": 154, "addr:city": "Heide", "addr:country": "DE", "addr:housenumber": "1e", "addr:postcode": "25746", "addr:street": "Auguste-Ebeling-Straße", "building": "house", "name": null, "opening_hours": null, "shop": null, "toilets:wheelchair": null, "website": null, "wheelchair": null, "craft": null, "fixme": null, "P_heat_max": 39, "lat": 6004660.608715592, "lon": 32506741.738194317, "id_full": "consumers-154", "type": "H" }, "geometry": { "type": "Point", "coordinates": [ 32506741.738194316625595, 6004660.608715591952205 ] } },
{ "type": "Feature", "properties": { "id": 155, "addr:city": "Heide", "addr:country": "DE", "addr:housenumber": "1f", "addr:postcode": "25746", "addr:street": "Auguste-Ebeling-Straße", "building": "house", "name": null, "opening_hours": null, "shop": null, "toilets:wheelchair": null, "website": null, "wheelchair": null, "craft": null, "fixme": null, "P_heat_max": 27, "lat": 6004658.7613560716, "lon": 32506736.262873858, "id_full": "consumers-155", "type": "H" }, "geometry": { "type": "Point", "coordinates": [ 32506736.262873858213425, 6004658.761356071569026 ] } },
{ "type": "Feature", "properties": { "id": 156, "addr:city": "Heide", "addr:country": "DE", "addr:housenumber": "2", "addr:postcode": "25746", "addr:street": "Auguste-Ebeling-Straße", "building": "detached", "name": null, "opening_hours": null, "shop": null, "toilets:wheelchair": null, "website": null, "wheelchair": null, "craft": null, "fixme": null, "P_heat_max": 38, "lat": 6004694.7449218221, "lon": 32506753.26549615, "id_full": "consumers-156", "type": "H" }, "geometry": { "type": "Point", "coordinates": [ 32506753.265496149659157, 6004694.744921822100878 ] } },
{ "type": "Feature", "properties": { "id": 157, "addr:city": "Heide", "addr:country": "DE", "addr:housenumber": "7", "addr:postcode": "25746", "addr:street": "Auguste-Ebeling-Straße", "building": "detached", "name": null, "opening_hours": null, "shop": null, "toilets:wheelchair": null, "website": null, "wheelchair": null, "craft": null, "fixme": "Umriss&Position", "P_heat_max": 28, "lat": 6004713.7517163604, "lon": 32506752.307921536, "id_full": "consumers-157", "type": "H" }, "geometry": { "type": "Point", "coordinates": [ 32506752.307921536266804, 6004713.751716360449791 ] } }
]
}
